{
  "type": "FeatureCollection",
  "features": [
    {
      "type": "Feature",
      "properties": {
        "norad_id": 24946,
        "name": "IRIDIUM 33",
        "group": "iridium-33-debris",
        "lat": 39.48658711007188,
        "lon": -111.59909202907772,
        "alt_km": 771.9619263463846,
        "timestamp": "2025-12-05T04:52:15.675315+00:00",
        "meta_object_name": "IRIDIUM 33",
        "meta_object_id": "1997-051C",
        "meta_epoch": "2025-12-04T16:30:14.912640",
        "meta_mean_motion": 14.3502848,
        "meta_eccentricity": 0.0006229,
        "meta_inclination": 86.3872,
        "meta_ra_of_asc_node": 71.6011,
        "meta_arg_of_pericenter": 231.2861,
        "meta_mean_anomaly": 128.7778,
        "meta_ephemeris_type": 0,
        "meta_classification_type": "U",
        "meta_norad_cat_id": 24946,
        "meta_element_set_no": 999,
        "meta_rev_at_epoch": 47719,
        "meta_bstar": 0.00024305,
        "meta_mean_motion_dot": 7.12e-06,
        "meta_mean_motion_ddot": 0,
        "tle_line1": "1 24946U 97051C   25338.68767260  .00000712  00000+0  24305-3 0  9996",
        "tle_line2": "2 24946  86.3872  71.6011 0006229 231.2861 128.7778 14.35028480477192"
      },
      "geometry": {
        "type": "Point",
        "coordinates": [
          -111.59909202907772,
          39.48658711007188
        ]
      }
    },
    {
      "type": "Feature",
      "properties": {
        "norad_id": 33773,
        "name": "IRIDIUM 33 DEB",
        "group": "iridium-33-debris",
        "lat": -54.981242627531095,
        "lon": -111.0644145392997,
        "alt_km": 751.5340442580573,
        "timestamp": "2025-12-05T04:52:15.675361+00:00",
        "meta_object_name": "IRIDIUM 33 DEB",
        "meta_object_id": "1997-051L",
        "meta_epoch": "2025-12-04T16:08:15.792864",
        "meta_mean_motion": 14.43229682,
        "meta_eccentricity": 0.0011623,
        "meta_inclination": 86.4014,
        "meta_ra_of_asc_node": 64.0075,
        "meta_arg_of_pericenter": 171.2195,
        "meta_mean_anomaly": 188.9211,
        "meta_ephemeris_type": 0,
        "meta_classification_type": "U",
        "meta_norad_cat_id": 33773,
        "meta_element_set_no": 999,
        "meta_rev_at_epoch": 88231,
        "meta_bstar": 0.00065225,
        "meta_mean_motion_dot": 2.214e-05,
        "meta_mean_motion_ddot": 0,
        "tle_line1": "1 33773U 97051L   25338.67240501  .00002214  00000+0  65225-3 0  9992",
        "tle_line2": "2 33773  86.4014  64.0075 0011623 171.2195 188.9211 14.43229682882312"
      },
      "geometry": {
        "type": "Point",
        "coordinates": [
          -111.0644145392997,
          -54.981242627531095
        ]
      }
    },
    {
      "type": "Feature",
      "properties": {
        "norad_id": 33775,
        "name": "IRIDIUM 33 DEB",
        "group": "iridium-33-debris",
        "lat": 6.743629841547855,
        "lon": 53.201502528499375,
        "alt_km": 765.2950098599067,
        "timestamp": "2025-12-05T04:52:15.675376+00:00",
        "meta_object_name": "IRIDIUM 33 DEB",
        "meta_object_id": "1997-051N",
        "meta_epoch": "2025-12-04T16:04:16.698144",
        "meta_mean_motion": 14.41441459,
        "meta_eccentricity": 0.0013354,
        "meta_inclination": 86.3643,
        "meta_ra_of_asc_node": 52.9983,
        "meta_arg_of_pericenter": 180.2166,
        "meta_mean_anomaly": 300.9326,
        "meta_ephemeris_type": 0,
        "meta_classification_type": "U",
        "meta_norad_cat_id": 33775,
        "meta_element_set_no": 999,
        "meta_rev_at_epoch": 88024,
        "meta_bstar": 0.00065635,
        "meta_mean_motion_dot": 2.149e-05,
        "meta_mean_motion_ddot": 0,
        "tle_line1": "1 33775U 97051N   25338.66963771  .00002149  00000+0  65635-3 0  9996",
        "tle_line2": "2 33775  86.3643  52.9983 0013354 180.2166 300.9326 14.41441459880245"
      },
      "geometry": {
        "type": "Point",
        "coordinates": [
          53.201502528499375,
          6.743629841547855
        ]
      }
    },
    {
      "type": "Feature",
      "properties": {
        "norad_id": 33776,
        "name": "IRIDIUM 33 DEB",
        "group": "iridium-33-debris",
        "lat": -35.72190245409049,
        "lon": 81.34835551052001,
        "alt_km": 773.7143143833819,
        "timestamp": "2025-12-05T04:52:15.675388+00:00",
        "meta_object_name": "IRIDIUM 33 DEB",
        "meta_object_id": "1997-051P",
        "meta_epoch": "2025-12-04T14:03:40.177152",
        "meta_mean_motion": 14.38210253,
        "meta_eccentricity": 0.0013468,
        "meta_inclination": 86.4037,
        "meta_ra_of_asc_node": 84.1997,
        "meta_arg_of_pericenter": 218.542,
        "meta_mean_anomaly": 152.6812,
        "meta_ephemeris_type": 0,
        "meta_classification_type": "U",
        "meta_norad_cat_id": 33776,
        "meta_element_set_no": 999,
        "meta_rev_at_epoch": 87965,
        "meta_bstar": 0.00057275,
        "meta_mean_motion_dot": 1.76e-05,
        "meta_mean_motion_ddot": 0,
        "tle_line1": "1 33776U 97051P   25338.58588168  .00001760  00000+0  57275-3 0  9990",
        "tle_line2": "2 33776  86.4037  84.1997 0013468 218.5420 152.6812 14.38210253879657"
      },
      "geometry": {
        "type": "Point",
        "coordinates": [
          81.34835551052001,
          -35.72190245409049
        ]
      }
    },
    {
      "type": "Feature",
      "properties": {
        "norad_id": 33777,
        "name": "IRIDIUM 33 DEB",
        "group": "iridium-33-debris",
        "lat": 1.8130798911451473,
        "lon": 38.59684208051149,
        "alt_km": 709.652753503542,
        "timestamp": "2025-12-05T04:52:15.675400+00:00",
        "meta_object_name": "IRIDIUM 33 DEB",
        "meta_object_id": "1997-051Q",
        "meta_epoch": "2025-12-04T15:39:47.047104",
        "meta_mean_motion": 14.55518436,
        "meta_eccentricity": 0.000511,
        "meta_inclination": 86.3797,
        "meta_ra_of_asc_node": 38.7212,
        "meta_arg_of_pericenter": 287.0906,
        "meta_mean_anomaly": 72.9742,
        "meta_ephemeris_type": 0,
        "meta_classification_type": "U",
        "meta_norad_cat_id": 33777,
        "meta_element_set_no": 999,
        "meta_rev_at_epoch": 88416,
        "meta_bstar": 0.0022811,
        "meta_mean_motion_dot": 9.958e-05,
        "meta_mean_motion_ddot": 0,
        "tle_line1": "1 33777U 97051Q   25338.65262786  .00009958  00000+0  22811-2 0  9998",
        "tle_line2": "2 33777  86.3797  38.7212 0005110 287.0906  72.9742 14.55518436884161"
      },
      "geometry": {
        "type": "Point",
        "coordinates": [
          38.59684208051149,
          1.8130798911451473
        ]
      }
    },
    {
      "type": "Feature",
      "properties": {
        "norad_id": 33850,
        "name": "IRIDIUM 33 DEB",
        "group": "iridium-33-debris",
        "lat": -30.56026170062603,
        "lon": 31.256119592275425,
        "alt_km": 764.2245720678002,
        "timestamp": "2025-12-05T04:52:15.675411+00:00",
        "meta_object_name": "IRIDIUM 33 DEB",
        "meta_object_id": "1997-051T",
        "meta_epoch": "2025-12-04T16:15:08.415072",
        "meta_mean_motion": 14.42120572,
        "meta_eccentricity": 0.001141,
        "meta_inclination": 86.3427,
        "meta_ra_of_asc_node": 33.6464,
        "meta_arg_of_pericenter": 186.1816,
        "meta_mean_anomaly": 295.3072,
        "meta_ephemeris_type": 0,
        "meta_classification_type": "U",
        "meta_norad_cat_id": 33850,
        "meta_element_set_no": 999,
        "meta_rev_at_epoch": 88036,
        "meta_bstar": 0.00086956,
        "meta_mean_motion_dot": 2.88e-05,
        "meta_mean_motion_ddot": 0,
        "tle_line1": "1 33850U 97051T   25338.67718073  .00002880  00000+0  86956-3 0  9995",
        "tle_line2": "2 33850  86.3427  33.6464 0011410 186.1816 295.3072 14.42120572880366"
      },
      "geometry": {
        "type": "Point",
        "coordinates": [
          31.256119592275425,
          -30.56026170062603
        ]
      }
    },
    {
      "type": "Feature",
      "properties": {
        "norad_id": 33853,
        "name": "IRIDIUM 33 DEB",
        "group": "iridium-33-debris",
        "lat": 79.46956144688123,
        "lon": 15.227258463714998,
        "alt_km": 1040.4495843205086,
        "timestamp": "2025-12-05T04:52:15.675421+00:00",
        "meta_object_name": "IRIDIUM 33 DEB",
        "meta_object_id": "1997-051W",
        "meta_epoch": "2025-12-04T01:16:34.217184",
        "meta_mean_motion": 13.98972091,
        "meta_eccentricity": 0.02067962,
        "meta_inclination": 86.0003,
        "meta_ra_of_asc_node": 353.6212,
        "meta_arg_of_pericenter": 262.6777,
        "meta_mean_anomaly": 150.4676,
        "meta_ephemeris_type": 0,
        "meta_classification_type": "U",
        "meta_norad_cat_id": 33853,
        "meta_element_set_no": 999,
        "meta_rev_at_epoch": 85224,
        "meta_bstar": 0.0041696417,
        "meta_mean_motion_dot": 7.249e-05,
        "meta_mean_motion_ddot": 0,
        "tle_line1": "1 33853U 97051W   25338.05317381  .00007249  00000+0  41696-2 0  9992",
        "tle_line2": "2 33853  86.0003 353.6212 0206796 262.6777 150.4676 13.98972091852249"
      },
      "geometry": {
        "type": "Point",
        "coordinates": [
          15.227258463714998,
          79.46956144688123
        ]
      }
    }
  ]
}